24873,IRIDIUM 921,1997,94.48,-1.0,-,86.38,Inactive,0,LEO,USA,USA,Unknown,Unknown,Delta,1 24873U 97034E   23225.68630590  .00010405  00000+0  42683-3 0  9993,2 24873  86.3839  78.6986 0005690   9.7179 350.4175 15.24097954428274,15.24097954,0.000569,LEO
24903,IRIDIUM 26,1997,100.28,-1.0,-,86.4,Inactive,0,LEO,USA,USA,Unknown,Unknown,Delta,1 24903U 97043A   23225.95184500  .00000490  00000+0  16218-3 0  9990,2 24903  86.3955  33.0391 0002221  95.9775 264.1675 14.35959457360567,14.35959457,0.0002221,LEO
24907,IRIDIUM 22,1997,100.36,-1.0,-,86.4,Inactive,0,LEO,USA,USA,Unknown,Unknown,Delta,1 24907U 97043E   23225.98067361  .00000456  00000+0  15364-3 0  9995,2 24907  86.3953  36.0206 0002098  90.3032 269.8404 14.34871316360191,14.34871316,0.0002098,LEO
24925,DUMMY MASS 1,1997,96.92,-1.0,-,86.33,Inactive,0,LEO,PRC,China,Unknown,Unknown,Unknown,1 24925U 97048A   23226.04971801  .00000442  00000+0  47590-4 0  9993,2 24925  86.3308  86.3145 0007768  28.8124 331.3528 14.85787233405385,14.85787233,0.0007768,LEO
24926,DUMMY MASS 2,1997,96.93,-1.0,-,86.33,Inactive,0,LEO,PRC,China,Unknown,Unknown,Unknown,1 24926U 97048B   23225.63248958  .00000443  00000+0  47967-4 0  9997,2 24926  86.3310  87.9979 0008990  37.5167 322.6683 14.85549322405114,14.85549322,0.000899,LEO
24944,IRIDIUM 29,1997,100.32,-1.0,-,86.39,Inactive,0,LEO,Kazakhstan,USA,Unknown,Unknown,Proton,1 24944U 97051A   23225.52377378  .00000437  00000+0  14569-3 0  9992,2 24944  86.3914  66.2400 0001935  85.7314 274.4104 14.35335658356829,14.35335658,0.0001935,LEO
24946,IRIDIUM 33,1997,100.41,-1.0,-,86.38,Inactive,0,LEO,Kazakhstan,USA,Unknown,Unknown,Proton,1 24946U 97051C   23225.48193391  .00000307  00000+0  10270-3 0  9991,2 24946  86.3829  65.5410 0009853 110.8173 249.4079 14.34084497356171,14.34084497,0.0009853,LEO
24948,IRIDIUM 28,1997,100.26,-1.0,-,86.39,Inactive,0,LEO,Kazakhstan,USA,Unknown,Unknown,Proton,1 24948U 97051E   23226.07815202  .00000416  00000+0  13575-3 0  9993,2 24948  86.3920  63.9080 0002452  94.6648 265.4829 14.36253923357260,14.36253923,0.0002452,LEO
